IRIDIUM 112             
1 41925U 17003J   24208.91359210  .00000292  00000+0  97138-4 0  9992
2 41925  86.3970  16.7565 0002123 100.3430 259.8005 14.34216881394334
IRIDIUM 111             
1 41926U 17003K   24209.45905442  .00000061  00000+0  14836-4 0  9995
2 41926  86.3978  16.5839 0002587  96.5373 263.6117 14.34218667394466
IRIDIUM 113             
1 42803U 17039A   24209.15994562 -.00000072  00000+0 -32727-4 0  9990
2 42803  86.3948 250.4754 0002354  96.0348 264.1116 14.34216956372282
IRIDIUM 123             
1 42804U 17039B   24208.78280355  .00000323  00000+0  10824-3 0  9997
2 42804  86.3957 282.1425 0002401  94.3664 265.7806 14.34214591370997
IRIDIUM 120             
1 42805U 17039C   24208.87452708  .00000227  00000+0  74144-4 0  9990
2 42805  86.3932 250.4668 0002330  91.8679 268.2784 14.34215520372232
IRIDIUM 115             
1 42806U 17039D   24208.86074163  .00000476  00000+0  13558-3 0  9992
2 42806  86.4471 250.5031 0002709  96.3190 263.8320 14.43276327374696
IRIDIUM 118             
1 42807U 17039E   24209.44243940 -.00000074  00000+0 -33313-4 0  9997
2 42807  86.3956 281.8675 0002043  93.8382 266.3047 14.34214227371097
IRIDIUM 117             
1 42808U 17039F   24208.76378284  .00000028  00000+0  30863-5 0  9997
2 42808  86.3956 282.1151 0002394  95.3395 264.8074 14.34215215371014
