<?xml version="1.0" encoding="UTF-8"?>
<ndm xmlns:xsi="http://www.w3.org/2001/XMLSchema-instance" xsi:noNamespaceSchemaLocation="https://sanaregistry.org/r/ndmxml_unqualified/ndmxml-2.0.0-master-2.0.xsd">
<omm id="CCSDS_OMM_VERS" version="2.0">
<header><CREATION_DATE/><ORIGINATOR/></header><body><segment><metadata><OBJECT_NAME>IRIDIUM 112</OBJECT_NAME><OBJECT_ID>2017-003J</OBJECT_ID><CENTER_NAME>EARTH</CENTER_NAME><REF_FRAME>TEME</REF_FRAME><TIME_SYSTEM>UTC</TIME_SYSTEM><MEAN_ELEMENT_THEORY>SGP4</MEAN_ELEMENT_THEORY></metadata><data><meanElements><EPOCH>2024-07-26T21:55:34.357440</EPOCH><MEAN_MOTION>14.34216881</MEAN_MOTION><ECCENTRICITY>.0002123</ECCENTRICITY><INCLINATION>86.3970</INCLINATION><RA_OF_ASC_NODE>16.7565</RA_OF_ASC_NODE><ARG_OF_PERICENTER>100.3430</ARG_OF_PERICENTER><MEAN_ANOMALY>259.8005</MEAN_ANOMALY></meanElements><tleParameters><EPHEMERIS_TYPE>0</EPHEMERIS_TYPE><CLASSIFICATION_TYPE>U</CLASSIFICATION_TYPE><NORAD_CAT_ID>41925</NORAD_CAT_ID><ELEMENT_SET_NO>999</ELEMENT_SET_NO><REV_AT_EPOCH>39433</REV_AT_EPOCH><BSTAR>.97138E-4</BSTAR><MEAN_MOTION_DOT>.292E-5</MEAN_MOTION_DOT><MEAN_MOTION_DDOT>0</MEAN_MOTION_DDOT></tleParameters></data></segment></body></omm>
<omm id="CCSDS_OMM_VERS" version="2.0">
<header><CREATION_DATE/><ORIGINATOR/></header><body><segment><metadata><OBJECT_NAME>IRIDIUM 111</OBJECT_NAME><OBJECT_ID>2017-003K</OBJECT_ID><CENTER_NAME>EARTH</CENTER_NAME><REF_FRAME>TEME</REF_FRAME><TIME_SYSTEM>UTC</TIME_SYSTEM><MEAN_ELEMENT_THEORY>SGP4</MEAN_ELEMENT_THEORY></metadata><data><meanElements><EPOCH>2024-07-27T11:01:02.301888</EPOCH><MEAN_MOTION>14.34218667</MEAN_MOTION><ECCENTRICITY>.0002587</ECCENTRICITY><INCLINATION>86.3978</INCLINATION><RA_OF_ASC_NODE>16.5839</RA_OF_ASC_NODE><ARG_OF_PERICENTER>96.5373</ARG_OF_PERICENTER><MEAN_ANOMALY>263.6117</MEAN_ANOMALY></meanElements><tleParameters><EPHEMERIS_TYPE>0</EPHEMERIS_TYPE><CLASSIFICATION_TYPE>U</CLASSIFICATION_TYPE><NORAD_CAT_ID>41926</NORAD_CAT_ID><ELEMENT_SET_NO>999</ELEMENT_SET_NO><REV_AT_EPOCH>39446</REV_AT_EPOCH><BSTAR>.14836E-4</BSTAR><MEAN_MOTION_DOT>.61E-6</MEAN_MOTION_DOT><MEAN_MOTION_DDOT>0</MEAN_MOTION_DDOT></tleParameters></data></segment></body></omm>
<omm id="CCSDS_OMM_VERS" version="2.0">
<header><CREATION_DATE/><ORIGINATOR/></header><body><segment><metadata><OBJECT_NAME>IRIDIUM 113</OBJECT_NAME><OBJECT_ID>2017-039A</OBJECT_ID><CENTER_NAME>EARTH</CENTER_NAME><REF_FRAME>TEME</REF_FRAME><TIME_SYSTEM>UTC</TIME_SYSTEM><MEAN_ELEMENT_THEORY>SGP4</MEAN_ELEMENT_THEORY></metadata><data><meanElements><EPOCH>2024-07-27T03:50:19.301568</EPOCH><MEAN_MOTION>14.34216956</MEAN_MOTION><ECCENTRICITY>.0002354</ECCENTRICITY><INCLINATION>86.3948</INCLINATION><RA_OF_ASC_NODE>250.4754</RA_OF_ASC_NODE><ARG_OF_PERICENTER>96.0348</ARG_OF_PERICENTER><MEAN_ANOMALY>264.1116</MEAN_ANOMALY></meanElements><tleParameters><EPHEMERIS_TYPE>0</EPHEMERIS_TYPE><CLASSIFICATION_TYPE>U</CLASSIFICATION_TYPE><NORAD_CAT_ID>42803</NORAD_CAT_ID><ELEMENT_SET_NO>999</ELEMENT_SET_NO><REV_AT_EPOCH>37228</REV_AT_EPOCH><BSTAR>-.32727E-4</BSTAR><MEAN_MOTION_DOT>-.72E-6</MEAN_MOTION_DOT><MEAN_MOTION_DDOT>0</MEAN_MOTION_DDOT></tleParameters></data></segment></body></omm>
<omm id="CCSDS_OMM_VERS" version="2.0">
<header><CREATION_DATE/><ORIGINATOR/></header><body><segment><metadata><OBJECT_NAME>IRIDIUM 123</OBJECT_NAME><OBJECT_ID>2017-039B</OBJECT_ID><CENTER_NAME>EARTH</CENTER_NAME><REF_FRAME>TEME</REF_FRAME><TIME_SYSTEM>UTC</TIME_SYSTEM><MEAN_ELEMENT_THEORY>SGP4</MEAN_ELEMENT_THEORY></metadata><data><meanElements><EPOCH>2024-07-26T18:47:14.226720</EPOCH><MEAN_MOTION>14.34214591</MEAN_MOTION><ECCENTRICITY>.0002401</ECCENTRICITY><INCLINATION>86.3957</INCLINATION><RA_OF_ASC_NODE>282.1425</RA_OF_ASC_NODE><ARG_OF_PERICENTER>94.3664</ARG_OF_PERICENTER><MEAN_ANOMALY>265.7806</MEAN_ANOMALY></meanElements><tleParameters><EPHEMERIS_TYPE>0</EPHEMERIS_TYPE><CLASSIFICATION_TYPE>U</CLASSIFICATION_TYPE><NORAD_CAT_ID>42804</NORAD_CAT_ID><ELEMENT_SET_NO>999</ELEMENT_SET_NO><REV_AT_EPOCH>37099</REV_AT_EPOCH><BSTAR>.10824E-3</BSTAR><MEAN_MOTION_DOT>.323E-5</MEAN_MOTION_DOT><MEAN_MOTION_DDOT>0</MEAN_MOTION_DDOT></tleParameters></data></segment></body></omm>
<omm id="CCSDS_OMM_VERS" version="2.0">
<header><CREATION_DATE/><ORIGINATOR/></header><body><segment><metadata><OBJECT_NAME>IRIDIUM 120</OBJECT_NAME><OBJECT_ID>2017-039C</OBJECT_ID><CENTER_NAME>EARTH</CENTER_NAME><REF_FRAME>TEME</REF_FRAME><TIME_SYSTEM>UTC</TIME_SYSTEM><MEAN_ELEMENT_THEORY>SGP4</MEAN_ELEMENT_THEORY></metadata><data><meanElements><EPOCH>2024-07-26T20:59:19.139712</EPOCH><MEAN_MOTION>14.34215520</MEAN_MOTION><ECCENTRICITY>.000233</ECCENTRICITY><INCLINATION>86.3932</INCLINATION><RA_OF_ASC_NODE>250.4668</RA_OF_ASC_NODE><ARG_OF_PERICENTER>91.8679</ARG_OF_PERICENTER><MEAN_ANOMALY>268.2784</MEAN_ANOMALY></meanElements><tleParameters><EPHEMERIS_TYPE>0</EPHEMERIS_TYPE><CLASSIFICATION_TYPE>U</CLASSIFICATION_TYPE><NORAD_CAT_ID>42805</NORAD_CAT_ID><ELEMENT_SET_NO>999</ELEMENT_SET_NO><REV_AT_EPOCH>37223</REV_AT_EPOCH><BSTAR>.74144E-4</BSTAR><MEAN_MOTION_DOT>.227E-5</MEAN_MOTION_DOT><MEAN_MOTION_DDOT>0</MEAN_MOTION_DDOT></tleParameters></data></segment></body></omm>
<omm id="CCSDS_OMM_VERS" version="2.0">
<header><CREATION_DATE/><ORIGINATOR/></header><body><segment><metadata><OBJECT_NAME>IRIDIUM 115</OBJECT_NAME><OBJECT_ID>2017-039D</OBJECT_ID><CENTER_NAME>EARTH</CENTER_NAME><REF_FRAME>TEME</REF_FRAME><TIME_SYSTEM>UTC</TIME_SYSTEM><MEAN_ELEMENT_THEORY>SGP4</MEAN_ELEMENT_THEORY></metadata><data><meanElements><EPOCH>2024-07-26T20:39:28.076832</EPOCH><MEAN_MOTION>14.43276327</MEAN_MOTION><ECCENTRICITY>.0002709</ECCENTRICITY><INCLINATION>86.4471</INCLINATION><RA_OF_ASC_NODE>250.5031</RA_OF_ASC_NODE><ARG_OF_PERICENTER>96.3190</ARG_OF_PERICENTER><MEAN_ANOMALY>263.8320</MEAN_ANOMALY></meanElements><tleParameters><EPHEMERIS_TYPE>0</EPHEMERIS_TYPE><CLASSIFICATION_TYPE>U</CLASSIFICATION_TYPE><NORAD_CAT_ID>42806</NORAD_CAT_ID><ELEMENT_SET_NO>999</ELEMENT_SET_NO><REV_AT_EPOCH>37469</REV_AT_EPOCH><BSTAR>.13558E-3</BSTAR><MEAN_MOTION_DOT>.476E-5</MEAN_MOTION_DOT><MEAN_MOTION_DDOT>0</MEAN_MOTION_DDOT></tleParameters></data></segment></body></omm>
<omm id="CCSDS_OMM_VERS" version="2.0">
<header><CREATION_DATE/><ORIGINATOR/></header><body><segment><metadata><OBJECT_NAME>IRIDIUM 118</OBJECT_NAME><OBJECT_ID>2017-039E</OBJECT_ID><CENTER_NAME>EARTH</CENTER_NAME><REF_FRAME>TEME</REF_FRAME><TIME_SYSTEM>UTC</TIME_SYSTEM><MEAN_ELEMENT_THEORY>SGP4</MEAN_ELEMENT_THEORY></metadata><data><meanElements><EPOCH>2024-07-27T10:37:06.764160</EPOCH><MEAN_MOTION>14.34214227</MEAN_MOTION><ECCENTRICITY>.0002043</ECCENTRICITY><INCLINATION>86.3956</INCLINATION><RA_OF_ASC_NODE>281.8675</RA_OF_ASC_NODE><ARG_OF_PERICENTER>93.8382</ARG_OF_PERICENTER><MEAN_ANOMALY>266.3047</MEAN_ANOMALY></meanElements><tleParameters><EPHEMERIS_TYPE>0</EPHEMERIS_TYPE><CLASSIFICATION_TYPE>U</CLASSIFICATION_TYPE><NORAD_CAT_ID>42807</NORAD_CAT_ID><ELEMENT_SET_NO>999</ELEMENT_SET_NO><REV_AT_EPOCH>37109</REV_AT_EPOCH><BSTAR>-.33313E-4</BSTAR><MEAN_MOTION_DOT>-.74E-6</MEAN_MOTION_DOT><MEAN_MOTION_DDOT>0</MEAN_MOTION_DDOT></tleParameters></data></segment></body></omm>
<omm id="CCSDS_OMM_VERS" version="2.0">
<header><CREATION_DATE/><ORIGINATOR/></header><body><segment><metadata><OBJECT_NAME>IRIDIUM 117</OBJECT_NAME><OBJECT_ID>2017-039F</OBJECT_ID><CENTER_NAME>EARTH</CENTER_NAME><REF_FRAME>TEME</REF_FRAME><TIME_SYSTEM>UTC</TIME_SYSTEM><MEAN_ELEMENT_THEORY>SGP4</MEAN_ELEMENT_THEORY></metadata><data><meanElements><EPOCH>2024-07-26T18:19:50.837376</EPOCH><MEAN_MOTION>14.34215215</MEAN_MOTION><ECCENTRICITY>.0002394</ECCENTRICITY><INCLINATION>86.3956</INCLINATION><RA_OF_ASC_NODE>282.1151</RA_OF_ASC_NODE><ARG_OF_PERICENTER>95.3395</ARG_OF_PERICENTER><MEAN_ANOMALY>264.8074</MEAN_ANOMALY></meanElements><tleParameters><EPHEMERIS_TYPE>0</EPHEMERIS_TYPE><CLASSIFICATION_TYPE>U</CLASSIFICATION_TYPE><NORAD_CAT_ID>42808</NORAD_CAT_ID><ELEMENT_SET_NO>999</ELEMENT_SET_NO><REV_AT_EPOCH>37101</REV_AT_EPOCH><BSTAR>.30863E-5</BSTAR><MEAN_MOTION_DOT>.28E-6</MEAN_MOTION_DOT><MEAN_MOTION_DDOT>0</MEAN_MOTION_DDOT></tleParameters></data></segment></body></omm>

</ndm>
